satname,norad_id,inclination_deg,eccentricity,mean_motion_rev_per_day,perigee_km,apogee_km,l1,l2
STARLINK-1143,45179,53.0472,0.0007309,15.62971136,374.14120375143284,384.0189036405245,1 45179U 20012B   26068.88554795  .00120207  00000+0  12869-2 0  9993,2 45179  53.0472 328.9461 0007309  98.0872 262.0971 15.62971136335958
STARLINK-1202,45183,53.1616,0.0001576,15.30193024,474.15580700820647,476.31599014583844,1 45183U 20012F   26068.29662031 -.00000628  00000+0 -90785-5 0  9998,2 45183  53.1616  41.0757 0001576  83.8145 276.3036 15.30193024334899
STARLINK-1216,45185,53.1618,0.0001312,15.30218876,474.2595572679984,476.05786206221455,1 45185U 20012H   26068.28711774  .00001694  00000+0  69264-4 0  9997,2 45185  53.1618  41.1009 0001312 105.4555 254.6591 15.30218876334830
STARLINK-1225,45187,53.1593,0.0001023,15.30182829,474.56523624804413,475.9674425712865,1 45187U 20012K   26068.15341069 -.00004694  00000+0 -14655-3 0  9999,2 45187  53.1593  42.1595 0001023  82.0758 278.0358 15.30182829334850
STARLINK-1230,45189,53.1608,0.0001427,15.30210968,474.2043524768005,476.160289811055,1 45189U 20012M   26068.16289567  .00002573  00000+0  98951-4 0  9990,2 45189  53.1608  42.1773 0001427  87.4149 272.7015 15.30210968332088
STARLINK-1234,45190,53.0445,0.0003896,15.62142525,378.8357977520882,384.1028830125151,1 45190U 20012N   26068.01209197  .00164269  00000+0  18058-2 0  9996,2 45190  53.0445 328.6187 0003896 312.9844  47.0842 15.62142525335777
STARLINK-1269,45197,53.1625,0.0001486,15.30171241,474.28251907649974,476.31936083225355,1 45197U 20012V   26068.35569548 -.00001711  00000+0 -45704-4 0  9993,2 45197  53.1625  41.1374 0001486 101.6741 258.4426 15.30171241334869
STARLINK-1154,45198,53.0499,0.0007244,15.45952497,423.6499989256781,433.51157165300447,1 45198U 20012W   26068.10422000  .00095128  00000+0  19057-2 0  9991,2 45198  53.0499  12.8007 0007244  86.2050 273.9784 15.45952497335209
STARLINK-1199,45201,53.1569,0.0001623,15.29352067,476.6353040696913,478.8607243453016,1 45201U 20012Z   26068.25932625 -.00002037  00000+0 -58259-4 0  9999,2 45201  53.1569  25.8332 0001623  88.0191 272.0995 15.29352067335099
STARLINK-1209,45206,53.0475,0.0005941,15.50971236,409.8539495134355,417.924234916205,1 45206U 20012AE  26068.22399857  .00117147  00000+0  19629-2 0  9998,2 45206  53.0475 335.6816 0005941 280.3441  79.6897 15.50971236334843
STARLINK-1231,45212,53.0511,0.0004413,15.21096361,499.4959326909684,505.56881147877084,1 45212U 20012AL  26068.81149695  .00049136  00000+0  21813-2 0  9993,2 45212  53.0511  15.2348 0004413  85.7081 274.4418 15.21096361335246
STARLINK-1271,45217,53.1602,0.0001421,15.30210928,474.208583882787,476.15629726779844,1 45217U 20012AR  26068.25754237  .00003935  00000+0  14487-3 0  9997,2 45217  53.1602  25.9675 0001421  94.3231 265.7932 15.30210928335097
STARLINK-1191,45222,53.1617,0.0001375,15.30216929,474.22219398339894,476.1068519022083,1 45222U 20012AW  26068.21226446  .00010175  00000+0  35500-3 0  9998,2 45222  53.1617   1.0406 0001375  90.2006 269.9152 15.30216929335445
STARLINK-1212,45223,53.0501,0.0006082,15.5218579,406.2167928352783,414.47430300656924,1 45223U 20012AX  26068.91668981  .00081778  00000+0  13202-2 0  9991,2 45223  53.0501 348.9966 0006082 116.2402 250.6203 15.52185790  5836
STARLINK-1215,45225,53.1617,0.0001309,15.30217017,474.2671630605628,476.0613573304827,1 45225U 20012AZ  26068.06785626  .00010037  00000+0  35036-3 0  9995,2 45225  53.1617   1.1930 0001309  84.3974 275.7176 15.30217017335389
STARLINK-1221,45227,53.0648,0.0003174,15.41921264,438.2751611860758,442.6035934704032,1 45227U 20012BB  26068.84675444  .00019024  00000+0  44902-3 0  9996,2 45227  53.0648 268.8713 0003174  49.9082 310.2200 15.41921264336735
STARLINK-1222,45228,53.057,0.0003969,15.49453171,415.62714321582916,421.0221744806222,1 45228U 20012BC  26068.04033687  .00033868  00000+0  61110-3 0  9998,2 45228  53.0570 345.9247 0003969  83.7118 276.4342 15.49453171335528
STARLINK-1226,45229,53.1606,0.0001285,15.30209616,474.3057058754821,476.0670099784693,1 45229U 20012BD  26068.09740263  .00008120  00000+0  28591-3 0  9998,2 45229  53.1606   1.3697 0001285  97.4465 262.6682 15.30209616335323
STARLINK-1227,45230,53.1607,0.0001062,15.31040019,471.9805111870546,473.435630680121,1 45230U 20012BE  26068.18453812  .00001087  00000+0  47655-4 0  9999,2 45230  53.1607   1.2165 0001062  82.0274 278.0847 15.31040019335455
STARLINK-1246,45235,53.1615,0.0001484,15.30215288,474.15239191393357,476.1864532601585,1 45235U 20012BK  26068.29976906  .00005862  00000+0  20979-3 0  9994,2 45235  53.1615  41.0601 0001484  96.3755 263.7415 15.30215288334919
STARLINK-1270,45237,53.0488,0.0003744,15.46943574,423.1258980911107,428.2205912023028,1 45237U 20012BM  26068.19483783  .00086338  00000+0  16754-2 0  9993,2 45237  53.0488 349.9204 0003744  96.5615 263.5818 15.46943574335598
STARLINK-1279,45360,53.0416,7.01e-05,15.57042246,395.7476793873793,396.6974445979713,1 45360U 20019A   26068.24792971  .00061081  00000+0  83008-3 0  9990,2 45360  53.0416 100.8300 0000701 120.8921 239.2159 15.57042246330601
STARLINK-1301,45361,53.0421,0.0001211,15.64882929,372.7578425294487,374.39310729087174,1 45361U 20019B   26068.40473589  .00053854  00000+0  54273-3 0  9991,2 45361  53.0421 105.4706 0001211 185.0942 175.0060 15.64882929330563
STARLINK-1262,45366,53.1536,0.0001482,15.29246756,477.0466737441784,479.0788513537982,1 45366U 20019G   26068.91668981  .00048258  00000+0  16794-2 0  9991,2 45366  53.1536 164.0603 0001482  84.7716 184.2119 15.29246756  5689
STARLINK-1273,45367,53.0509,0.0002147,15.44237041,432.1583147138481,435.0832835127867,1 45367U 20019H   26068.53463122  .00072311  00000+0  15437-2 0  9990,2 45367  53.0509 155.5528 0002147   0.3875 359.7131 15.44237041329876
STARLINK-1276,45368,53.0577,0.0002517,15.06875764,544.0110501510071,547.4965367764371,1 45368U 20019J   26068.68419679  .00060332  00000+0  39832-2 0  9990,2 45368  53.0577 166.6421 0002517  41.2868 318.8311 15.06875764329733
STARLINK-1277,45369,53.0507,0.0004057,15.48951677,417.0336241864061,422.5494634068418,1 45369U 20019K   26068.91668981  .00072560  00000+0  13166-2 0  9997,2 45369  53.0507 151.5270 0004057  12.0439 148.7255 15.48951677  5735
STARLINK-1281,45370,53.1563,0.0001157,15.2938791,476.8476831472062,478.4341101524924,1 45370U 20019L   26068.91668981  .00001397  00000+0  60673-4 0  9996,2 45370  53.1563 164.2247 0001157  84.8893 192.7367 15.29387910  5784
STARLINK-1300,45374,53.1547,9.49e-05,15.29349427,477.1052798317396,478.40652830493127,1 45374U 20019Q   26068.91668981 -.00017388  00000+0 -59178-3 0  9996,2 45374  53.1547 164.1827 0000949  63.9075 117.0330 15.29349427  5681
STARLINK-1302,45375,53.0526,0.0003006,15.53621418,404.12359947322693,408.20232060920443,1 45375U 20019R   26068.91668981  .00042750  00000+0  66235-3 0  9998,2 45375  53.0526 150.6631 0003006 300.6944 160.5234 15.53621418  5747
STARLINK-1304,45376,53.0494,0.0002269,15.48251524,420.29792177748186,423.38375171979806,1 45376U 20019S   26068.51627900  .00082321  00000+0  15279-2 0  9990,2 45376  53.0494 150.3277 0002269 330.5798  29.5081 15.48251524329940
STARLINK-1305,45377,53.0452,0.0002678,15.52988672,406.1882919281725,409.8229499159388,1 45377U 20019T   26068.45269460  .00099582  00000+0  15575-2 0  9993,2 45377  53.0452 133.4072 0002678  91.2700 268.8616 15.52988672330184
STARLINK-1319,45379,53.0438,0.0002259,15.6522869,371.05614318237895,374.10611763369707,1 45379U 20019V   26068.67078970  .00053021  00000+0  52717-3 0  9991,2 45379  53.0438 129.8049 0002259  59.0266 301.0970 15.65228690330259
STARLINK-1266,45383,53.0503,0.0004374,15.45424585,427.1528624525208,433.1087351229007,1 45383U 20019Z   26068.46483719  .00088069  00000+0  17997-2 0  9994,2 45383  53.0503 134.0330 0004374  12.7123 347.3992 15.45424585330162
STARLINK-1267,45384,53.0515,0.0002699,15.49705648,415.75228973935464,419.4206212606332,1 45384U 20019AA  26068.42636192  .00097422  00000+0  17136-2 0  9994,2 45384  53.0515 128.2688 0002699 271.1817  88.8882 15.49705648330246
STARLINK-1272,45386,53.0437,0.0002253,15.56551311,396.1203212924911,399.17348952026805,1 45386U 20019AC  26068.91668981  .00159649  00000+0  21714-2 0  9998,2 45386  53.0437 108.6804 0002253 117.7325 196.0477 15.56551311  5917
STARLINK-1274,45387,53.0276,0.0003121,15.47008118,423.3605883026803,427.6074085298915,1 45387U 20019AD  26068.46376850  .00078205  00000+0  15166-2 0  9992,2 45387  53.0276 104.0147 0003121 240.3604 119.7091 15.47008118330587
STARLINK-1280,45388,53.0424,0.0001257,15.65492154,370.97523247303343,372.6721725936495,1 45388U 20019AE  26068.52306641  .00053742  00000+0  52867-3 0  9990,2 45388  53.0424 123.3056 0001257  87.3823 272.7335 15.65492154330315
STARLINK-1283,45389,53.0437,0.0003402,15.56509105,395.46422872926905,400.074555438443,1 45389U 20019AF  26068.91668981  .00150219  00000+0  20490-2 0  9995,2 45389  53.0437 108.8911 0003402 247.1127 134.5962 15.56509105  5916
STARLINK-1284,45390,53.0484,0.0003713,15.51780095,409.0076737933796,414.0496795248664,1 45390U 20019AG  26068.54950551  .00094801  00000+0  15497-2 0  9998,2 45390  53.0484 131.6640 0003713  17.3458 342.7677 15.51780095330205
STARLINK-1297,45395,53.0475,0.0004806,15.54173769,401.29568288153496,407.81520685954456,1 45395U 20019AM  26068.81795704  .00099356  00000+0  14883-2 0  9998,2 45395  53.0475 130.0817 0004806  18.5712 341.5472 15.54173769329439
STARLINK-1307,45397,53.0547,0.0002135,15.50016975,415.2257671893376,418.1271525366992,1 45397U 20019AP  26068.48934038  .00024703  00000+0  43970-3 0  9992,2 45397  53.0547 131.7054 0002135  40.9100 319.2068 15.50016975330026
STARLINK-1255,45399,53.0421,0.0001712,15.51751966,410.44832359039356,412.7731332125986,1 45399U 20019AR  26068.36701389  .00079988  00000+0  13127-2 0  9997,2 45399  53.0421 104.2940 0001712 331.4004  28.6910 15.51751966330382
